452P/Sheppard-Jewitt,e,6.4217,123.6911,37.0396,7.299780,0.0499735,0.42764293,9.5680,11/03.0/2023,2000,g  9.0,4.0
# From MPEC 2023-RF3
453P/WISE-Lemmon,e,27.0682,42.8956,70.8405,5.460661,0.0772389,0.58274006,18.9182,11/03.0/2023,2000,g 14.0,4.0
# From MPEC 2023-CD7
454P/PANSTARRS,e,19.8126,54.5827,20.0551,4.207418,0.1142038,0.36153821,53.0791,11/03.0/2023,2000,g 14.0,4.0
# From MPEC 2022-Y14
455P/PANSTARRS,e,14.1375,146.1849,237.5150,3.153046,0.1760389,0.30495939,44.1418,11/03.0/2023,2000,g 17.0,4.0
# From MPEC 2023-N01
456P/PANSTARRS,e,16.9623,243.1763,234.0105,3.169282,0.1746878,0.11783101,266.8707,11/03.0/2023,2000,g 13.5,4.0
# From MPEC 2023-F99
457P/Lemmon-PANSTARRS,e,5.2253,175.9745,104.4298,2.646008,0.2289904,0.11874096,293.2531,11/03.0/2023,2000,g 15.5,4.0
# From MPEC 2023-HD1
458P/Jahn,e,13.6278,1.5876,104.8121,3.856956,0.1301179,0.31701989,47.9838,11/03.0/2023,2000,g 17.3,4.0
# From MPEC 2023-UR6
459P/Catalina,e,7.1723,256.9923,205.1928,3.239335,0.1690520,0.57764720,43.0404,11/03.0/2023,2000,g 15.5,4.0
# From MPEC 2023-G14
460P/PANSTARRS,e,18.8949,180.5155,351.9606,3.027076,0.1871410,0.66403871,162.7193,11/03.0/2023,2000,g 21.0,4.0
# From MPEC 2023-J95
461P/WISE,e,18.4117,194.3764,174.8203,3.142950,0.1768878,0.57023352,134.2706,11/03.0/2023,2000,g 18.5,4.0
# From MPEC 2023-JA3
462P/LONEOS-PANSTARRS,e,7.0251,322.8108,4.4021,4.881452,0.0913862,0.57830804,41.8520,11/03.0/2023,2000,g 17.0,4.0
# From MPEC 2023-RF3
463P/NEOWISE,e,29.2817,283.2089,216.3621,2.974581,0.1921168,0.82557211,41.9539,11/03.0/2023,2000,g 18.0,4.0
# From MPEC 2023-RF3
464P/PANSTARRS,e,21.6650,309.5842,267.6708,4.687362,0.0971206,0.28054904,24.0885,11/03.0/2023,2000,g 10.5,4.0
# From MPEC 2023-UR6
465P/Hill,e,25.8710,218.0115,141.2179,6.038776,0.0664172,0.61424165,11.7663,11/03.0/2023,2000,g 12.5,4.0
# From MPEC 2023-UR6
466P/PANSTARRS,e,12.2352,119.8585,196.7333,4.043662,0.1212109,0.46711390,22.2139,11/03.0/2023,2000,g 14.0,4.0
# From MPEC 2023-T65
467P/LINEAR-Grauer,e,2.4788,43.2730,267.8223,5.832031,0.0699801,0.05548707,23.5477,11/03.0/2023,2000,g  9.0,4.0
# From MPEC 2023-UR6
468P/SidingSpring,e,50.4452,356.1247,322.5528,7.123695,0.0518377,0.44552920,359.0646,11/03.0/2023,2000,g 11.5,4.0
# From MPEC 2023-P35
469P/PANSTARRS,e,20.1742,178.9641,43.5439,4.339560,0.1090274,0.30742024,276.3922,11/03.0/2023,2000,g 13.5,4.0
# From MPEC 2023-UR6
470P/PANSTARRS,e,8.8381,246.1858,152.0587,4.475589,0.1040948,0.39031648,355.2849,11/03.0/2023,2000,g 15.5,4.0
# From MPEC 2023-UR6
471P/,e,4.7909,283.3442,94.9590,5.706861,0.0722950,0.62791961,356.5803,11/03.0/2023,2000,g 12.0,4.0
# From MPC107687
1I/`Oumuamua,h,09/09.4886/2017,122.6778,24.5997,241.6845,1.199252,0.255240,2000,23.0,2.0
# From MPEC 2023-L37
2I/Borisov,h,12/08.5548/2019,44.0527,308.1480,209.1251,3.356633,2.006548,2000,11.0,4.0
